#dP2024 10  8  0  0  0.00000000      97 __u+U IGS20 FIT  IAC
## 2335 172800.00000000   900.00000000 60591 0.0000000000000
+  119   C06C07C08C09C10C11C12C13C14C16C19C20C21C22C23C24C25
+        C26C27C28C29C30C32C33C34C35C36C37C38C39C40C41C42C43
+        C44C45E02E03E04E05E06E07E08E09E10E11E12E13E14E15E18
+        E19E21E24E25E26E27E29E30E31E33E34E36G02G03G04G05G06
+        G07G08G09G10G11G12G13G14G15G16G17G18G19G20G21G22G23
+        G24G25G26G27G28G29G30G31G32J02J03J04R01R02R03R04R05
+        R07R08R09R11R12R14R15R16R17R18R19R20R21R22R24R25R26
++         8  8  9  8  7  7  7  8  7  8  6  6  6  6  6  6  6
++         6  6  6  7  7  6  6  6  6  6  7  7  7  7  6  6  6
++         6  6  5  5  5  4  4  5  5  4  5  5  5  5  5  5  5
++         5  5  4  4  5  5  5  5  4  5  4  4  4  4  4  4  4
++         4  4  4  4  4  4  4  4  4  4  4  4  4  4  4  4  4
++         4  4  5  4  4  4  4  4  4 11 11 11  8  7  7  7  7
++         7  7  7  7  7  7  7  7  7  7  8  8  7  7  8  8  8
%c M  cc GPS ccc cccc cccc cccc cccc ccccc ccccc ccccc ccccc
%c cc cc ccc ccc cccc cccc cccc cccc ccccc ccccc ccccc ccccc
%f  1.2500000  1.025000000  0.00000000000  0.000000000000000
%f  0.0000000  0.000000000  0.00000000000  0.000000000000000
%i    0    0    0    0      0      0      0      0         0
%i    0    0    0    0      0      0      0      0         0
/* INFORMATION & ANALYSIS CENTER (IAC)            FINAL DATA
/* S/V CLOCKS ARE ALIGNED TO GNSS TIME                      
/* G:C1WC2W R:C1PC2P E:C1XC5X C:C2IC6I J:C1CC2S             
/* PCV:IGS20_2317 OL/AL:FES2004  NONE     YN ORB:CoN CLK:CoN
*  2024 10 08 20 15  0.00000000
PC06  -2876.318434  25457.017112 -33377.024708    303.871378
PC07 -17424.798788  34824.688228  16007.858511   -305.974057
PC08  -4129.233784  39424.173662  14714.705619   -636.516041
PC09   3710.202111  27491.311752 -31062.177704   -448.317465
PC10 -10080.874775  34789.685670  21497.144490   -218.466805
PC11  16646.726461  13282.984325  18117.356084    184.375743
PC12  -4738.148980  15170.010710  22982.832099   -260.340621
PC13    806.710213  41630.772273   7751.110088     98.080997
PC14   6548.940487  16760.363173 -21314.710972   -288.610535
PC16  -8761.413440  22339.428485 -34342.852560    197.072674
PC19 -13248.346661  -8151.267105  23180.933699   -946.119159
PC20    -17.123707 -21926.834196  17275.250744   -936.005969
PC21 -14641.792280  23742.842098   -191.378365   -923.689361
PC22 -19777.162215  11218.153399  16151.194533    145.907332
PC23  17844.542915    412.512335  21456.643563   -853.026107
PC24   7903.256853  25763.186044  -7320.916844    805.590988
PC25  18626.638834  18302.226718   9861.185528    527.614920
PC26  -6527.309632  18053.386347 -20286.138723   -359.992477
PC27  14734.494560 -13296.430495 -19632.177298    379.709897
PC28  26398.169424  -4554.182299  -7823.409220    294.656665
PC29 -23729.173640  -8424.096862 -12025.804734    345.987761
PC30  -5324.140267 -15814.757240 -22373.642501   -251.178115
PC32  14527.939919 -23832.937892     60.547698   -760.128786
PC33  13272.924320   8159.314811 -23159.475465   -960.129444
PC34   7307.754830  15581.506706  21955.577520    538.178098
PC35 -26465.058506   5184.427865   7225.384225    240.466568
PC36 -18339.360396 -18327.595484 -10280.666333    199.003274
PC37   7055.153519 -17751.238499  20341.493788   -894.122798
PC38  -8869.423439  35341.506154  21415.126677    184.067948
PC39 -13275.980276  20369.101324 -34410.120165    -10.071561
PC40 -25046.158915  29858.315991  15731.778418    -95.600673
PC41  19693.338690 -10419.099741 -16767.854269   -900.663721
PC42  -1427.142861  22817.833366 -15950.800411   -490.444428
PC43  23094.524828   9041.220406  12771.717113     88.328330
PC44 -14390.088730  13928.018181  19431.596846    616.655827
PC45 -17890.234531  -1046.266915 -21388.630589   -144.782204
PE02  -3402.912839 -27724.249457  -9771.705215    165.421457
PE03  -3909.394957 -16654.457858  24144.924968   -145.604736
PE04  22683.870623   4243.944339 -18538.166375    -52.363197
PE05  16694.357201 -18964.971361  15417.331141   4791.160315
PE06  27272.506977  -3233.584447 -11052.544213    -34.138181
PE07 -27727.319807   9993.846802   2685.525618   -146.292952
PE08 -22089.821736  -4761.177311  19105.622927   -348.297511
PE09  27749.634829  -9941.743488  -2782.025798   -618.746380
PE10  25258.415245   8490.406018 -12906.481250   -661.885605
PE11  21334.166317   -575.177848 -20516.789664   1341.827137
PE12  25007.324190  15218.041037  -4363.533454  -1243.552457
PE13 -21620.587617     29.779103  20221.877751    -25.556980
PE14 -20028.883552  -5921.527256 -15911.725696    280.535214
PE15 -24861.947398 -15631.240676   3699.932956   -131.895557
PE18  29704.198568  -6995.004336   6134.585506    636.358593
PE19   1684.132479  17256.639312 -23991.057161    745.700536
PE21  -9089.918459  26882.812813  -8420.572634   -621.337441
PE24  16797.465224  -9957.436886  22228.453265  -1031.640911
PE25   9354.093502 -26655.805568   8838.585498      9.916027
PE26  -5409.289344  15819.093912  24435.558803   -246.495843
PE27 -16708.817214  10164.927814 -22216.824227   -472.790347
PE29 -16333.210759  19095.231506 -15665.656095    -36.171982
PE30 -14417.404798 -12324.886342 -22727.485675   -798.753232
PE31  14384.073478  12344.142801  22746.182181    -38.584500
PE33  13063.219967  21867.731946  15096.429931     15.727992
PE34 -13470.866852 -21838.811416 -14741.406084   -138.899623
PE36   5844.701298 -15353.167186 -24616.981832   -294.305117
PG02 -22699.655613 -13872.779256  -2275.690361   -341.312715
PG03 -12419.217199 -12427.844399  19786.790466    564.061328
PG04 -19695.773801  -4093.748491  17430.998802    458.168797
PG05   5799.491855  24476.499074  -8605.495636   -189.160441
PG06  -8366.912111  11980.322160  22248.268939    -24.451601
PG07 -22924.882946  -4063.040135 -12658.872484    -29.514056
PG08 -10007.196440 -12060.832215 -21588.561670    378.243816
PG09 -24130.080144   5405.894166   9682.250314    390.235158
PG10  10373.587102 -19642.472060 -14083.090211   -151.723039
PG11   6541.288979  19248.202947  17158.263739   -742.296374
PG12  10402.265037  16637.375123  17639.572730   -543.748785
PG13    378.766930  15549.234506 -21730.677878    680.510221
PG14 -13061.496552  16112.803084 -16415.090982    513.212404
PG15  11702.738898  11151.445241 -21610.321071    213.448910
PG16    -91.842016 -25869.581937  -5178.622717   -160.055165
PG17 -21699.613337  14295.618382   6354.753756    602.010391
PG18  22118.919998   3006.050084 -14541.885372   -657.203888
PG19 -15529.939649  16182.456669  13738.080675    548.070026
PG20    924.783019  26403.139228   3504.154206    369.863446
PG21 -19835.944653 -16534.881702  -7830.713516    100.177798
PG22  -9908.800419  22742.126568  -9491.037897    -69.284287
PG23  14394.934616  -6478.499974 -21288.210857    337.416325
PG24  21301.374069  15450.447161  -5414.198534   -485.330691
PG25  15137.481801   3061.447896  21282.406781    499.570641
PG26   4935.060818 -24661.404915   7749.569065     60.529076
PG27   1841.947960 -17101.925662 -20417.784835    -34.425776
PG28  10393.231222 -11354.528650  21631.749623   -439.150472
PG29  24015.396068  -1651.840380  11323.927876   -572.618629
PG30 -17238.241946   5795.132551 -19289.574597   -306.221994
PG31  -1362.900539 -17604.772608  19487.244519   -223.661239
PG32  19688.262896 -16147.012654   7391.759310   -588.958099
PJ02 -23831.793268  31810.611109  -9541.238022     -1.216895
PJ03 -28051.350729  21689.805100  27940.177966     -4.255204
PJ04 -32677.810335  26720.355563   7233.652628     22.033823
PR01  -6672.862202  -8928.236047  22938.146928    100.387955
PR02 -16932.643196   5854.793481  18229.176740    -25.069107
PR03 -18040.512009  17829.646975   3062.212286    109.039952
PR04  -9604.766934  19491.832539 -13355.830368    258.383185
PR05   4060.642499  10989.399915 -22657.668446    138.871084
PR07  17847.619012 -18014.787456  -2422.399014     92.530214
PR08   9103.420061 -19548.623153  13644.596667     -6.422382
PR09  13289.657155   6429.293049  20798.929655    213.592224
PR11  -1721.690739 -22601.682127  11729.085569      9.781709
PR12 -11019.793952 -21668.282520  -7683.140107     45.787212
PR14  -7257.018896  11330.497424 -21653.309646     27.041917
PR15   2538.849652  23271.319088 -10104.168897     75.080325
PR16  11008.618484  21706.443903   7586.763166     29.790801
PR17 -17053.752590   4842.180189  18331.009906    129.028785
PR18   -847.210072  10600.912566  23204.043540    165.921268
PR19  14108.733150  11930.341535  17598.217261   -294.166656
PR20  24753.728953   5741.397604  -2027.391092   -120.171944
PR21  17801.125142  -4192.704437 -17794.206827   -141.119121
PR22   -181.031818 -11248.636796 -22863.204098     26.385318
PR24 -25008.194888  -4243.083099   2582.415537    -75.225455
PR25  17050.571029  -4588.687592 -18411.951173    -93.833398
PR26  10203.181745 -19957.570247  12206.117026     68.591653
EOF
